LEMUR-2-KREMPEL-BRO1    
1 63357U 25061G   26087.90059693  .00004902  00000+0  27290-3 0  9999
2 63357  97.5549  64.3431 0019398 160.8505 199.3460 15.13946361 55484
LEMUR-2-LANGER2SPACE    
1 63358U 25061H   26088.17551274  .00005569  00000+0  31238-3 0  9999
2 63358  97.5555  64.4621 0017176 167.8201 192.3449 15.13647952 55514
LEMUR-2-BALTO           
1 63395U 25052BH  26088.18579906  .00009696  00000+0  79996-3 0  9991
2 63395  97.6978 342.7651 0000633  59.5336 300.5950 14.99213454 56774
LEMUR-2-KRISH           
1 64561U 25135AK  26088.20257692  .00010322  00000+0  93897-3 0  9991
2 64561  97.7636 203.7286 0001592 102.4039 257.7359 14.95393421 41965
LEMUR-2-HUBBLE-4        
1 64565U 25135AP  26088.19050984  .00003299  00000+0  32314-3 0  9990
2 64565  97.7588 203.1174 0002822 163.3319 196.7994 14.92956097 41934
LEMUR-2-SEJONG-2        
1 64586U 25135BL  26088.19373448  .00009208  00000+0  82635-3 0  9993
2 64586  97.7574 203.8552 0003830 215.5199 144.5767 14.95951166 41984
LEMUR-2-HUBBLE-5        
1 64840U 25135BT  26088.05480967  .00002572  00000+0  24748-3 0  9994
2 64840  97.7606 203.4972 0004514 234.2106 125.8695 14.93860863 41940
LEMUR-2-KARENDARRELL    
1 64841U 25135BU  26087.84306751  .00011823  00000+0  98305-3 0  9998
2 64841  97.7585 204.2769 0008192 134.9296 225.2593 14.98837874 41978
LEMUR-2-LUCILLE-ROSE    
1 65403U 25135BV  26087.88521771  .00011066  00000+0  91870-3 0  9997
2 65403  97.7652 204.2990 0010271 175.2480 184.8842 14.98900418 36604
LEMUR-2-AFFIE-WAUWIE    
1 66295U 25248C   26087.98507598  .00027905  00000+0  11259-2 0  9995
2 66295  45.4035 188.6118 0008289 332.8329  27.2125 15.24362858 22345
LEMUR-2-DEANANDMAEVE    
1 66678U 25276N   26088.15637936  .00009469  00000+0  45981-3 0  9996
2 66678  97.4258 163.0070 0004428 278.5871  81.4861 15.18664285 18264
LEMUR-2-STAS-GORBUK     
1 66686U 25276W   26088.15622549  .00007916  00000+0  38727-3 0  9994
2 66686  97.4294 163.0590 0003639 273.7670  86.3148 15.18462926 18267
LEMUR-2-TEODOR          
1 66768U 25276DG  26088.16188181  .00009206  00000+0  42868-3 0  9990
2 66768  97.4195 163.2013 0002239  92.1629 267.9862 15.20132912 18286
LEMUR-2-LAILA           
1 66776U 25276DQ  26088.14711522  .00008166  00000+0  37839-3 0  9994
2 66776  97.4221 163.2571 0002872 101.2006 258.9552 15.20340656 18280
LEMUR-2-FINNIAN         
1 66782U 25276DX  26088.15819266  .00009504  00000+0  77983-3 0  9997
2 66782  97.5347 161.7604 0006788  53.1797 307.0048 14.99406695  8005
LEMUR-2-STARLIGHT       
1 66783U 25276DY  26088.18016646  .00011642  00000+0  98463-3 0  9994
2 66783  97.5306 161.5832 0015252  45.2562 314.9899 14.98111350 18215
