[{"OBJECT_NAME":"LEMUR-2-KREMPEL-BRO1","OBJECT_ID":"2025-061G","EPOCH":"2026-03-28T21:36:51.574752","MEAN_MOTION":15.13946361,"ECCENTRICITY":0.0019398,"INCLINATION":97.5549,"RA_OF_ASC_NODE":64.3431,"ARG_OF_PERICENTER":160.8505,"MEAN_ANOMALY":199.346,"EPHEMERIS_TYPE":0,"CLASSIFICATION_TYPE":"U","NORAD_CAT_ID":63357,"ELEMENT_SET_NO":999,"REV_AT_EPOCH":5548,"BSTAR":0.0002729,"MEAN_MOTION_DOT":4.902e-5,"MEAN_MOTION_DDOT":0},{"OBJECT_NAME":"LEMUR-2-LANGER2SPACE","OBJECT_ID":"2025-061H","EPOCH":"2026-03-29T04:12:44.300736","MEAN_MOTION":15.13647952,"ECCENTRICITY":0.0017176,"INCLINATION":97.5555,"RA_OF_ASC_NODE":64.4621,"ARG_OF_PERICENTER":167.8201,"MEAN_ANOMALY":192.3449,"EPHEMERIS_TYPE":0,"CLASSIFICATION_TYPE":"U","NORAD_CAT_ID":63358,"ELEMENT_SET_NO":999,"REV_AT_EPOCH":5551,"BSTAR":0.00031238,"MEAN_MOTION_DOT":5.569e-5,"MEAN_MOTION_DDOT":0},{"OBJECT_NAME":"LEMUR-2-BALTO","OBJECT_ID":"2025-052BH","EPOCH":"2026-03-29T04:27:33.038784","MEAN_MOTION":14.99213454,"ECCENTRICITY":6.33e-5,"INCLINATION":97.6978,"RA_OF_ASC_NODE":342.7651,"ARG_OF_PERICENTER":59.5336,"MEAN_ANOMALY":300.595,"EPHEMERIS_TYPE":0,"CLASSIFICATION_TYPE":"U","NORAD_CAT_ID":63395,"ELEMENT_SET_NO":999,"REV_AT_EPOCH":5677,"BSTAR":0.00079996,"MEAN_MOTION_DOT":9.696e-5,"MEAN_MOTION_DDOT":0},{"OBJECT_NAME":"LEMUR-2-KRISH","OBJECT_ID":"2025-135AK","EPOCH":"2026-03-29T04:51:42.645888","MEAN_MOTION":14.95393421,"ECCENTRICITY":0.0001592,"INCLINATION":97.7636,"RA_OF_ASC_NODE":203.7286,"ARG_OF_PERICENTER":102.4039,"MEAN_ANOMALY":257.7359,"EPHEMERIS_TYPE":0,"CLASSIFICATION_TYPE":"U","NORAD_CAT_ID":64561,"ELEMENT_SET_NO":999,"REV_AT_EPOCH":4196,"BSTAR":0.00093897,"MEAN_MOTION_DOT":0.00010322,"MEAN_MOTION_DDOT":0},{"OBJECT_NAME":"LEMUR-2-HUBBLE-4","OBJECT_ID":"2025-135AP","EPOCH":"2026-03-29T04:34:20.050176","MEAN_MOTION":14.92956097,"ECCENTRICITY":0.0002822,"INCLINATION":97.7588,"RA_OF_ASC_NODE":203.1174,"ARG_OF_PERICENTER":163.3319,"MEAN_ANOMALY":196.7994,"EPHEMERIS_TYPE":0,"CLASSIFICATION_TYPE":"U","NORAD_CAT_ID":64565,"ELEMENT_SET_NO":999,"REV_AT_EPOCH":4193,"BSTAR":0.00032314,"MEAN_MOTION_DOT":3.299e-5,"MEAN_MOTION_DDOT":0},{"OBJECT_NAME":"LEMUR-2-SEJONG-2","OBJECT_ID":"2025-135BL","EPOCH":"2026-03-29T04:38:58.659072","MEAN_MOTION":14.95951166,"ECCENTRICITY":0.000383,"INCLINATION":97.7574,"RA_OF_ASC_NODE":203.8552,"ARG_OF_PERICENTER":215.5199,"MEAN_ANOMALY":144.5767,"EPHEMERIS_TYPE":0,"CLASSIFICATION_TYPE":"U","NORAD_CAT_ID":64586,"ELEMENT_SET_NO":999,"REV_AT_EPOCH":4198,"BSTAR":0.00082635,"MEAN_MOTION_DOT":9.208e-5,"MEAN_MOTION_DDOT":0},{"OBJECT_NAME":"LEMUR-2-HUBBLE-5","OBJECT_ID":"2025-135BT","EPOCH":"2026-03-29T01:18:55.555488","MEAN_MOTION":14.93860863,"ECCENTRICITY":0.0004514,"INCLINATION":97.7606,"RA_OF_ASC_NODE":203.4972,"ARG_OF_PERICENTER":234.2106,"MEAN_ANOMALY":125.8695,"EPHEMERIS_TYPE":0,"CLASSIFICATION_TYPE":"U","NORAD_CAT_ID":64840,"ELEMENT_SET_NO":999,"REV_AT_EPOCH":4194,"BSTAR":0.00024748,"MEAN_MOTION_DOT":2.572e-5,"MEAN_MOTION_DDOT":0},{"OBJECT_NAME":"LEMUR-2-KARENDARRELL","OBJECT_ID":"2025-135BU","EPOCH":"2026-03-28T20:14:01.032864","MEAN_MOTION":14.98837874,"ECCENTRICITY":0.00081928,"INCLINATION":97.7585,"RA_OF_ASC_NODE":204.2769,"ARG_OF_PERICENTER":134.9296,"MEAN_ANOMALY":225.2593,"EPHEMERIS_TYPE":0,"CLASSIFICATION_TYPE":"U","NORAD_CAT_ID":64841,"ELEMENT_SET_NO":999,"REV_AT_EPOCH":4197,"BSTAR":0.00098304567,"MEAN_MOTION_DOT":0.00011823,"MEAN_MOTION_DDOT":0},{"OBJECT_NAME":"LEMUR-2-LUCILLE-ROSE","OBJECT_ID":"2025-135BV","EPOCH":"2026-03-28T21:14:42.810144","MEAN_MOTION":14.98900418,"ECCENTRICITY":0.0010271,"INCLINATION":97.7652,"RA_OF_ASC_NODE":204.299,"ARG_OF_PERICENTER":175.248,"MEAN_ANOMALY":184.8842,"EPHEMERIS_TYPE":0,"CLASSIFICATION_TYPE":"U","NORAD_CAT_ID":65403,"ELEMENT_SET_NO":999,"REV_AT_EPOCH":3660,"BSTAR":0.0009187,"MEAN_MOTION_DOT":0.00011066,"MEAN_MOTION_DDOT":0},{"OBJECT_NAME":"LEMUR-2-AFFIE-WAUWIE","OBJECT_ID":"2025-248C","EPOCH":"2026-03-28T23:38:30.564672","MEAN_MOTION":15.24362858,"ECCENTRICITY":0.0008289,"INCLINATION":45.4035,"RA_OF_ASC_NODE":188.6118,"ARG_OF_PERICENTER":332.8329,"MEAN_ANOMALY":27.2125,"EPHEMERIS_TYPE":0,"CLASSIFICATION_TYPE":"U","NORAD_CAT_ID":66295,"ELEMENT_SET_NO":999,"REV_AT_EPOCH":2234,"BSTAR":0.0011259,"MEAN_MOTION_DOT":0.00027905,"MEAN_MOTION_DDOT":0},{"OBJECT_NAME":"LEMUR-2-DEANANDMAEVE","OBJECT_ID":"2025-276N","EPOCH":"2026-03-29T03:45:11.176704","MEAN_MOTION":15.18664285,"ECCENTRICITY":0.0004428,"INCLINATION":97.4258,"RA_OF_ASC_NODE":163.007,"ARG_OF_PERICENTER":278.5871,"MEAN_ANOMALY":81.4861,"EPHEMERIS_TYPE":0,"CLASSIFICATION_TYPE":"U","NORAD_CAT_ID":66678,"ELEMENT_SET_NO":999,"REV_AT_EPOCH":1826,"BSTAR":0.00045981,"MEAN_MOTION_DOT":9.469e-5,"MEAN_MOTION_DDOT":0},{"OBJECT_NAME":"LEMUR-2-STAS-GORBUK","OBJECT_ID":"2025-276W","EPOCH":"2026-03-29T03:44:57.882336","MEAN_MOTION":15.18462926,"ECCENTRICITY":0.0003639,"INCLINATION":97.4294,"RA_OF_ASC_NODE":163.059,"ARG_OF_PERICENTER":273.767,"MEAN_ANOMALY":86.3148,"EPHEMERIS_TYPE":0,"CLASSIFICATION_TYPE":"U","NORAD_CAT_ID":66686,"ELEMENT_SET_NO":999,"REV_AT_EPOCH":1826,"BSTAR":0.00038727,"MEAN_MOTION_DOT":7.916e-5,"MEAN_MOTION_DDOT":0},{"OBJECT_NAME":"LEMUR-2-TEODOR","OBJECT_ID":"2025-276DG","EPOCH":"2026-03-29T03:53:06.588384","MEAN_MOTION":15.20132912,"ECCENTRICITY":0.0002239,"INCLINATION":97.4195,"RA_OF_ASC_NODE":163.2013,"ARG_OF_PERICENTER":92.1629,"MEAN_ANOMALY":267.9862,"EPHEMERIS_TYPE":0,"CLASSIFICATION_TYPE":"U","NORAD_CAT_ID":66768,"ELEMENT_SET_NO":999,"REV_AT_EPOCH":1828,"BSTAR":0.00042868,"MEAN_MOTION_DOT":9.206e-5,"MEAN_MOTION_DDOT":0},{"OBJECT_NAME":"LEMUR-2-LAILA","OBJECT_ID":"2025-276DQ","EPOCH":"2026-03-29T03:31:50.755008","MEAN_MOTION":15.20340656,"ECCENTRICITY":0.0002872,"INCLINATION":97.4221,"RA_OF_ASC_NODE":163.2571,"ARG_OF_PERICENTER":101.2006,"MEAN_ANOMALY":258.9552,"EPHEMERIS_TYPE":0,"CLASSIFICATION_TYPE":"U","NORAD_CAT_ID":66776,"ELEMENT_SET_NO":999,"REV_AT_EPOCH":1828,"BSTAR":0.00037839,"MEAN_MOTION_DOT":8.166e-5,"MEAN_MOTION_DDOT":0},{"OBJECT_NAME":"LEMUR-2-FINNIAN","OBJECT_ID":"2025-276DX","EPOCH":"2026-03-29T03:47:47.845824","MEAN_MOTION":14.99406695,"ECCENTRICITY":0.0006788,"INCLINATION":97.5347,"RA_OF_ASC_NODE":161.7604,"ARG_OF_PERICENTER":53.1797,"MEAN_ANOMALY":307.0048,"EPHEMERIS_TYPE":0,"CLASSIFICATION_TYPE":"U","NORAD_CAT_ID":66782,"ELEMENT_SET_NO":999,"REV_AT_EPOCH":800,"BSTAR":0.00077983,"MEAN_MOTION_DOT":9.504e-5,"MEAN_MOTION_DDOT":0},{"OBJECT_NAME":"LEMUR-2-STARLIGHT","OBJECT_ID":"2025-276DY","EPOCH":"2026-03-29T04:19:26.382144","MEAN_MOTION":14.9811135,"ECCENTRICITY":0.0015252,"INCLINATION":97.5306,"RA_OF_ASC_NODE":161.5832,"ARG_OF_PERICENTER":45.2562,"MEAN_ANOMALY":314.9899,"EPHEMERIS_TYPE":0,"CLASSIFICATION_TYPE":"U","NORAD_CAT_ID":66783,"ELEMENT_SET_NO":999,"REV_AT_EPOCH":1821,"BSTAR":0.00098463,"MEAN_MOTION_DOT":0.00011642,"MEAN_MOTION_DDOT":0}]
